*******************************************************************************
JPL/HORIZONS               1752 van Herk (1930 OK)         2023-Sep-04 11:13:58
Rec #:    1752 (+COV) Soln.date: 2023-Aug-22_10:11:30   # obs: 7783 (1930-2023)
 
IAU76/J2000 helio. ecliptic osc. elements (au, days, deg., period=Julian yrs):
 
  EPOCH=  2457401.5 ! 2016-Jan-14.00 (TDB)         Residual RMS= .25195
   EC= .200413650465605    QR= 1.790213807938048   TP= 2456828.3473528121
   OM= 236.9379403349089   W=  98.62410492501648   IN= 3.502811800631985
   A= 2.238924925344839    MA= 168.6223275131341   ADIST= 2.687636042751631
   PER= 3.35018            N= .294201428           ANGMOM= .025217345
   DAN= 2.21558            DDN= 2.0863             L= 335.5779436
   B= 3.4631583            MOID= .78297001         TP= 2014-Jun-19.8473528121
 
Asteroid physical parameters (km, seconds, rotational period in hours):
   GM= n.a.                RAD= 2.2895             ROTPER= 88.45
   H= 13.14                G= .150                 B-V= n.a.
                           ALBEDO= .307            STYP= n.a.

ASTEROID comments: 
1: soln ref.= JPL#50, OCC=0
2: source=ORB
*******************************************************************************


*******************************************************************************
Ephemeris / API_USER Mon Sep  4 11:13:58 2023 Pasadena, USA      / Horizons
*******************************************************************************
Target body name: 1752 van Herk (1930 OK)         {source: JPL#50}
Center body name: Solar System Barycenter (0)     {source: DE441}
Center-site name: BODY CENTER
*******************************************************************************
Start time      : A.D. 2023-Aug-12 00:00:00.0000 TDB
Stop  time      : A.D. 2023-Aug-13 00:00:00.0000 TDB
Step-size       : 2880 minutes
*******************************************************************************
Center geodetic : 0.0, 0.0, 0.0                   {E-lon(deg),Lat(deg),Alt(km)}
Center cylindric: 0.0, 0.0, 0.0                   {E-lon(deg),Dxy(km),Dz(km)}
Center radii    : (undefined)
Small perturbers: Yes                             {source: SB441-N16}
Output units    : KM-S
Calendar mode   : Mixed Julian/Gregorian
Output type     : GEOMETRIC cartesian states
Output format   : 2 (position and velocity)
Reference frame : Ecliptic of J2000.0
*******************************************************************************
Initial IAU76/J2000 heliocentric ecliptic osculating elements (au, days, deg.):
  EPOCH=  2457401.5 ! 2016-Jan-14.00 (TDB)         Residual RMS= .25195        
   EC= .200413650465605    QR= 1.790213807938048   TP= 2456828.3473528121      
   OM= 236.9379403349089   W=  98.62410492501648   IN= 3.502811800631985       
  Equivalent ICRF heliocentric cartesian coordinates (au, au/d):
   X=-2.265237102944824E+00  Y= 1.373117093097626E+00  Z= 4.167718705728764E-01
  VX=-5.277262627425918E-03 VY=-7.143306796253671E-03 VZ=-3.108528725664288E-03
Asteroid physical parameters (km, seconds, rotational period in hours):        
   GM= n.a.                RAD= 2.2895             ROTPER= 88.45               
   H= 13.14                G= .150                 B-V= n.a.                   
                           ALBEDO= .307            STYP= n.a.                  
*******************************************************************************
JDTDB
   X     Y     Z
   VX    VY    VZ
*******************************************************************************
$$SOE
2460168.500000000 = A.D. 2023-Aug-12 00:00:00.0000 TDB 
 X =-2.853504662587957E+08 Y =-2.143068568348241E+08 Z =-7.344811205236882E+06
 VX= 1.386618256060606E+01 VY=-1.252088966366824E+01 VZ= 1.130256293228315E+00
$$EOE
*******************************************************************************
 
TIME

  Barycentric Dynamical Time ("TDB" or T_eph) output was requested. This
continuous coordinate time is equivalent to the relativistic proper time
of a clock at rest in a reference frame co-moving with the solar system
barycenter but outside the system's gravity well. It is the independent
variable in the solar system relativistic equations of motion.

  TDB runs at a uniform rate of one SI second per second and is independent
of irregularities in Earth's rotation.
 
CALENDAR SYSTEM

  Mixed calendar mode was active such that calendar dates after AD 1582-Oct-15
(if any) are in the modern Gregorian system. Dates prior to 1582-Oct-5 (if any)
are in the Julian calendar system, which is automatically extended for dates
prior to its adoption on 45-Jan-1 BC.  The Julian calendar is useful for
matching historical dates. The Gregorian calendar more accurately corresponds
to the Earth's orbital motion and seasons. A "Gregorian-only" calendar mode is
available if such physical events are the primary interest.

REFERENCE FRAME AND COORDINATES

  Ecliptic at the standard reference epoch

    Reference epoch: J2000.0
    X-Y plane: adopted Earth orbital plane at the reference epoch
               Note: IAU76 obliquity of 84381.448 arcseconds wrt ICRF X-Y plane
    X-axis   : ICRF
    Z-axis   : perpendicular to the X-Y plane in the directional (+ or -) sense
               of Earth's north pole at the reference epoch.

  Symbol meaning:

    JDTDB    Julian Day Number, Barycentric Dynamical Time
      X      X-component of position vector (km)
      Y      Y-component of position vector (km)
      Z      Z-component of position vector (km)
      VX     X-component of velocity vector (km/sec)                           
      VY     Y-component of velocity vector (km/sec)                           
      VZ     Z-component of velocity vector (km/sec)                           

ABERRATIONS AND CORRECTIONS

 Geometric state vectors have NO corrections or aberrations applied.

Computations by ...

    Solar System Dynamics Group, Horizons On-Line Ephemeris System
    4800 Oak Grove Drive, Jet Propulsion Laboratory
    Pasadena, CA  91109   USA

    General site: https://ssd.jpl.nasa.gov/
    Mailing list: https://ssd.jpl.nasa.gov/email_list.html
    System news : https://ssd.jpl.nasa.gov/horizons/news.html
    User Guide  : https://ssd.jpl.nasa.gov/horizons/manual.html
    Connect     : browser        https://ssd.jpl.nasa.gov/horizons/app.html#/x
                  API            https://ssd-api.jpl.nasa.gov/doc/horizons.html
                  command-line   telnet ssd.jpl.nasa.gov 6775
                  e-mail/batch   https://ssd.jpl.nasa.gov/ftp/ssd/hrzn_batch.txt
                  scripts        https://ssd.jpl.nasa.gov/ftp/ssd/SCRIPTS
    Author      : Jon.D.Giorgini@jpl.nasa.gov
*******************************************************************************
